{
    "links": {
        "self": "http://www.neowsapp.com/rest/v1/neo/3874055?api_key=iIulBulltgU6a56xZRHN4H3l9WmuAYTsLGpBGhQ2"
    },
    "id": "3874055",
    "neo_reference_id": "3874055",
    "name": "(2019 TE1)",
    "designation": "2019 TE1",
    "nasa_jpl_url": "http://ssd.jpl.nasa.gov/sbdb.cgi?sstr=3874055",
    "absolute_magnitude_h": 23.9,
    "estimated_diameter": {
        "kilometers": {
            "estimated_diameter_min": 0.04411182,
            "estimated_diameter_max": 0.0986370281
        },
        "meters": {
            "estimated_diameter_min": 44.1118199997,
            "estimated_diameter_max": 98.6370281305
        },
        "miles": {
            "estimated_diameter_min": 0.0274098057,
            "estimated_diameter_max": 0.0612901888
        },
        "feet": {
            "estimated_diameter_min": 144.7238235278,
            "estimated_diameter_max": 323.6123073718
        }
    },
    "is_potentially_hazardous_asteroid": false,
    "close_approach_data": [
        {
            "close_approach_date": "2019-10-05",
            "close_approach_date_full": "2019-Oct-05 20:22",
            "epoch_date_close_approach": 1570306920000,
            "relative_velocity": {
                "kilometers_per_second": "13.1230757489",
                "kilometers_per_hour": "47243.0726959846",
                "miles_per_hour": "29355.00814268"
            },
            "miss_distance": {
                "astronomical": "0.1726399541",
                "lunar": "67.1569421449",
                "kilometers": "25826569.410257767",
                "miles": "16047886.0811685046"
            },
            "orbiting_body": "Earth"
        }
    ],
    "orbital_data": {
        "orbit_id": "1",
        "orbit_determination_date": "2019-10-04 06:12:46",
        "first_observation_date": "2019-10-01",
        "last_observation_date": "2019-10-04",
        "data_arc_in_days": 3,
        "observations_used": 14,
        "orbit_uncertainty": "9",
        "minimum_orbit_intersection": ".167244",
        "jupiter_tisserand_invariant": "3.492",
        "epoch_osculation": "2458758.5",
        "eccentricity": ".4606407845780573",
        "semi_major_axis": "2.131313327631109",
        "inclination": "22.42873772946818",
        "ascending_node_longitude": "188.778576480046",
        "orbital_period": "1136.499837397724",
        "perihelion_distance": "1.149543484209445",
        "perihelion_argument": "200.573448420076",
        "aphelion_distance": "3.113083171052774",
        "perihelion_time": "2458777.480490836317",
        "mean_anomaly": "353.9877011186207",
        "mean_motion": ".3167620338814146",
        "equinox": "J2000",
        "orbit_class": {
            "orbit_class_type": "AMO",
            "orbit_class_description": "Near-Earth asteroid orbits similar to that of 1221 Amor",
            "orbit_class_range": "1.017 AU < q (perihelion) < 1.3 AU"
        }
    },
    "is_sentry_object": false
}